satname,norad_id,inclination_deg,eccentricity,mean_motion_rev_per_day,perigee_km,apogee_km,l1,l2
STARLINK-1300,45374,53.0529,0.0001402,15.06393443,546.2607175864623,548.2025909571203,1 45374U 20019Q   25301.46634134 -.00001747  00000+0 -98401-4 0  9993,2 45374  53.0529  40.1883 0001402  96.3385 263.7764 15.06393443309807
STARLINK-1302,45375,53.0549,0.0001168,15.06390769,546.430965752189,548.048733784296,1 45375U 20019R   25301.54744127  .00002284  00000+0  17219-3 0  9999,2 45375  53.0549  39.8281 0001168  79.7552 280.3569 15.06390769309814
STARLINK-1304,45376,53.0549,0.0001204,15.06395241,546.3923299037615,548.0599573487461,1 45376U 20019S   25301.56586615  .00000700  00000+0  65877-4 0  9993,2 45376  53.0549  39.7427 0001204  94.6282 265.4844 15.06395241309813
STARLINK-1305,45377,53.0544,0.0001217,15.31191848,471.4214960704812,473.08888152923464,1 45377U 20019T   25301.55512310  .00015459  00000+0  51690-3 0  9998,2 45377  53.0544  38.0052 0001217  83.7505 276.3634 15.31191848309842
STARLINK-1319,45379,53.0551,0.0001714,15.14203131,522.2159237901678,524.5817702785316,1 45379U 20019V   25301.66674769  .02116866  00000+0  10421+0 0  9998,2 45379  53.0551  39.1821 0001714  84.2516  62.0299 15.14203131  5758
STARLINK-1266,45383,53.0546,0.0001206,15.06401561,546.3715772431251,548.0419701613419,1 45383U 20019Z   25301.51980048  .00002829  00000+0  20871-3 0  9992,2 45383  53.0546  19.9545 0001206  80.5791 279.5334 15.06401561310084
STARLINK-1267,45384,53.0548,0.0001442,15.06396936,546.2223120566987,548.2195852890973,1 45384U 20019AA  25301.50512851  .00000272  00000+0  37171-4 0  9997,2 45384  53.0548  20.6751 0001442  93.6556 266.4598 15.06396936310076
STARLINK-1272,45386,53.0545,0.000137,15.3304542,465.79455455476545,467.6700487434182,1 45386U 20019AC  25301.66674769  .00110147  00000+0  33642-2 0  9993,2 45386  53.0545  17.6930 0001370  48.5906 172.8471 15.33045420  5753
STARLINK-1274,45387,53.0381,0.0003464,15.28703013,477.31289913484216,482.0640006065114,1 45387U 20019AD  25301.45123376  .00042063  00000+0  14910-2 0  9992,2 45387  53.0381   5.9985 0003464 232.0798 127.9888 15.28703013310279
STARLINK-1280,45388,53.0545,0.0001569,15.38511176,449.43976201232726,451.58259181024096,1 45388U 20019AE  25301.66674769  .00116340  00000+0  29802-2 0  9999,2 45388  53.0545  37.3029 0001569  46.1536  65.8329 15.38511176  5806
STARLINK-1283,45389,53.0561,0.0002466,15.29773886,474.7973138938132,478.1780147782647,1 45389U 20019AF  25301.59063321  .00045288  00000+0  15520-2 0  9992,2 45389  53.0561  16.5715 0002466  23.6045 336.5067 15.29773886310149
STARLINK-1284,45390,53.0558,0.0001377,15.06402444,546.2504479754189,548.1576869053915,1 45390U 20019AG  25301.52347787  .00006088  00000+0  42719-3 0  9994,2 45390  53.0558  19.9380 0001377  96.8159 263.2987 15.06402444310084
STARLINK-1292,45394,53.045,0.000823,15.9254826,289.6625465709585,300.64678465255565,1 45394U 20019AL  25301.66674769  .00330173  52638-4  95064-3 0  9991,2 45394  53.0450 331.2072 0008230   8.8700 159.0540 15.92548260  6011
STARLINK-1297,45395,53.0555,0.000169,15.06396511,546.0518655279484,548.392636954869,1 45395U 20019AM  25301.62669034  .00002187  00000+0  16566-3 0  9999,2 45395  53.0555  19.4721 0001690  93.5487 266.5695 15.06396511309285
STARLINK-1307,45397,53.054,0.0001285,15.064027,546.3133766131641,548.093189065853,1 45397U 20019AP  25301.48663663  .00008917  00000+0  61669-3 0  9998,2 45397  53.0540  20.1002 0001285  84.2967 275.8168 15.06402700309907
STARLINK-1312,45398,53.0419,0.0005637,15.96818757,279.4963949752482,287.0064442795356,1 45398U 20019AQ  25301.66674769  .00519440  12354-3  11879-2 0  9992,2 45398  53.0419 330.4936 0005637  10.8355  79.1445 15.96818757  5859
STARLINK-1255,45399,53.0494,0.0001266,15.2986018,475.36213564659647,477.0976613452958,1 45399U 20019AR  25301.46848633  .00013805  00000+0  48232-3 0  9993,2 45399  53.0494   8.2304 0001266  50.5478 309.5633 15.29860180310056
STARLINK-1260,45404,53.0557,0.0001271,15.06392353,546.3547802104895,548.1152097716167,1 45404U 20019AW  25301.48754598  .00000509  00000+0  53044-4 0  9993,2 45404  53.0557  10.0953 0001271  90.6228 269.4906 15.06392353309937
STARLINK-1263,45405,53.0554,0.0001337,15.06403334,546.2754219912858,548.1272574633285,1 45405U 20019AX  25301.60549898  .00007902  00000+0  54871-3 0  9995,2 45405  53.0554   9.5695 0001337  81.8356 278.2785 15.06403334309955
STARLINK-1265,45406,53.0554,0.0001312,15.06404728,546.2884635074997,548.1056711667688,1 45406U 20019AY  25301.61286166 -.00001866  00000+0 -10642-3 0  9996,2 45406  53.0554   9.5358 0001312  93.3260 266.7879 15.06404728309951
STARLINK-1278,45408,53.0545,0.0001018,15.32505047,467.64427112881094,469.03821409900684,1 45408U 20019BA  25301.66674769  .00110602  00000+0  34356-2 0  9997,2 45408  53.0545  37.6248 0001018  24.6154 261.5775 15.32505047  5805
STARLINK-1296,45412,53.0555,0.0001509,15.06396187,546.1782073978975,548.2682811196137,1 45412U 20019BE  25301.48386411  .00003016  00000+0  22128-3 0  9991,2 45412  53.0555  10.1128 0001509  95.6175 264.4987 15.06396187309932
STARLINK-1298,45413,53.0489,0.0007988,15.51761603,406.15898915177604,417.0062452121865,1 45413U 20019BF  25301.54790091  .00129738  00000+0  21082-2 0  9999,2 45413  53.0489 346.9135 0007988 297.6294  62.3903 15.51761603310361
STARLINK-1309,45414,53.0551,0.0001353,15.06401396,546.2702803216389,548.1442784836445,1 45414U 20019BG  25301.63129738  .00008059  00000+0  55927-3 0  9992,2 45414  53.0551   9.4533 0001353  87.3977 272.7167 15.06401396309948
STARLINK-1316,45415,53.0568,0.0001676,15.06393158,546.0718358293661,548.3932196950718,1 45415U 20019BH  25301.59075646  .00002141  00000+0  16261-3 0  9990,2 45415  53.0568   9.6306 0001676 100.4544 259.6635 15.06393158309975
STARLINK-1318,45416,53.0522,0.0004828,15.59908548,384.6548617416274,391.1881678435111,1 45416U 20019BJ  25301.42103049  .00053398  00000+0  65263-3 0  9998,2 45416  53.0522 339.2222 0004828  26.7482 333.3778 15.59908548310375
STARLINK-1286,45417,53.0536,0.0001457,15.28857082,478.22859722217345,480.22683330020027,1 45417U 20019BK  25301.66674769  .01535215  00000+0  49259-1 0  9996,2 45417  53.0536  38.1217 0001457  88.7267   1.2869 15.28857082  5751
STARLINK-1308,45419,53.0537,0.0001643,15.06392186,546.097668123507,548.3733455292504,1 45419U 20019BM  25301.49214927  .00001378  00000+0  11143-3 0  9995,2 45419  53.0537  40.0745 0001643 110.4938 249.6227 15.06392186309542
STARLINK-1329,45531,53.0552,0.0001449,15.06399524,546.2095335926697,548.2165000275418,1 45531U 20025A   25301.39447446  .00006324  00000+0  44306-3 0  9993,2 45531  53.0552 340.5157 0001449  82.4597 277.6557 15.06399524305155
STARLINK-1338,45532,53.0537,0.0001296,15.06398828,546.3176243131729,548.1126755904406,1 45532U 20025B   25301.40553360  .00002402  00000+0  18012-3 0  9997,2 45532  53.0537 340.4624 0001296  90.2724 269.8413 15.06398828305156
STARLINK-1350,45535,53.0744,0.0001575,15.32149789,468.32103864156215,470.47801264714053,1 45535U 20025E   25301.28886617  .00013660  00000+0  44489-3 0  9995,2 45535  53.0744 293.1415 0001575  58.5659 301.5495 15.32149789305833
STARLINK-1362,45538,53.0542,0.0001275,15.06401331,546.324497196957,548.090460039004,1 45538U 20025H   25301.37138726  .00005029  00000+0  35625-3 0  9991,2 45538  53.0542 340.3361 0001275  86.4568 273.6567 15.06401331305152
STARLINK-1368,45540,53.0553,0.0001411,15.06406888,546.2132835879593,548.1676109935843,1 45540U 20025K   25301.37604333  .00002416  00000+0  18099-3 0  9999,2 45540  53.0553 340.5980 0001411  87.8316 272.2834 15.06406888305147
STARLINK-1371,45542,53.0555,0.0001316,15.06397058,546.3091977023887,548.1319518160653,1 45542U 20025M   25301.54560103  .00000428  00000+0  47651-4 0  9994,2 45542  53.0555 339.8363 0001316  89.5090 270.6050 15.06397058305172
STARLINK-1372,45543,53.0544,0.0001421,15.06396906,546.2369472413184,548.2051339964619,1 45543U 20025N   25301.38341655  .00001700  00000+0  13300-3 0  9993,2 45543  53.0544 340.5627 0001421  91.0212 269.0939 15.06396906304240
STARLINK-1373,45544,53.0554,0.0001403,15.0639828,546.2452023532887,548.1884566378458,1 45544U 20025P   25301.53454334  .00000771  00000+0  70657-4 0  9996,2 45544  53.0554 339.8848 0001403  85.4223 274.6926 15.06398280305175
STARLINK-1294,45551,53.0491,0.0008194,15.58829716,385.49624967688123,396.58958172273014,1 45551U 20025W   25301.22627230  .00077747  00000+0  98305-3 0  9993,2 45551  53.0491 275.6343 0008194  43.8924 316.2738 15.58829716306052
STARLINK-1325,45554,53.056,0.0001582,15.59296809,388.6203562520159,390.7616970396457,1 45554U 20025Z   25301.66674769  .00314155  00000+0  37750-2 0  9996,2 45554  53.0560 266.4512 0001582 116.4178   5.4019 15.59296809  5923
STARLINK-1327,45555,53.0549,0.0001474,15.06397488,546.1984593549196,548.2400543794429,1 45555U 20025AA  25301.37420126  .00001586  00000+0  12537-3 0  9999,2 45555  53.0549 320.6051 0001474  88.8093 271.3064 15.06397488305429
STARLINK-1356,45564,53.0556,0.0001425,15.06396183,546.236392681677,548.2101203547845,1 45564U 20025AK  25301.37789060  .00001855  00000+0  14343-3 0  9990,2 45564  53.0556 320.5879 0001425  86.5099 273.6053 15.06396183305425
STARLINK-1357,45565,53.0625,0.0006892,15.31539881,466.49676820331933,475.937918230009,1 45565U 20025AL  25301.32595566  .00094534  00000+0  30329-2 0  9999,2 45565  53.0625 306.4372 0006892 336.5441  23.5243 15.31539881305623
STARLINK-1361,45567,53.0543,0.0001321,15.06401119,546.2932902751099,548.1229664580242,1 45567U 20025AN  25301.32996925  .00001825  00000+0  14137-3 0  9996,2 45567  53.0543 320.8018 0001321  88.3432 271.7709 15.06401119305421
STARLINK-1363,45568,53.0641,0.000131,15.39231384,447.4866490921768,449.2751967879876,1 45568U 20025AP  25301.66674769  .01073877  00000+0  24924-1 0  9993,2 45568  53.0641 317.6013 0001310  73.7006 147.0824 15.39231384  5806
